[{"OBJECT_NAME":"STARLINK-4776","OBJECT_ID":"2022-114V","EPOCH":"2026-03-09T21:01:37.004736","MEAN_MOTION":15.08823289,"ECCENTRICITY":0.00014363,"INCLINATION":53.2184,"RA_OF_ASC_NODE":302.9943,"ARG_OF_PERICENTER":88.7474,"MEAN_ANOMALY":271.3683,"EPHEMERIS_TYPE":0,"CLASSIFICATION_TYPE":"U","NORAD_CAT_ID":53837,"ELEMENT_SET_NO":999,"REV_AT_EPOCH":19286,"BSTAR":-0.0001558528,"MEAN_MOTION_DOT":-2.766e-5,"MEAN_MOTION_DDOT":0},{"OBJECT_NAME":"FENGYUN 1C DEB","OBJECT_ID":"1999-025BTY","EPOCH":"2026-03-09T14:49:03.533664","MEAN_MOTION":15.05418076,"ECCENTRICITY":0.0035944,"INCLINATION":98.8793,"RA_OF_ASC_NODE":298.6402,"ARG_OF_PERICENTER":319.4464,"MEAN_ANOMALY":105.3063,"EPHEMERIS_TYPE":0,"CLASSIFICATION_TYPE":"U","NORAD_CAT_ID":31436,"ELEMENT_SET_NO":999,"REV_AT_EPOCH":98178,"BSTAR":0.0045436,"MEAN_MOTION_DOT":0.00066638,"MEAN_MOTION_DDOT":0}]
